[{"OBJECT_NAME":"TIANQI-15","OBJECT_ID":"2021-065B","EPOCH":"2026-03-09T19:28:45.472224","MEAN_MOTION":15.09508085,"ECCENTRICITY":0.00070671,"INCLINATION":34.9979,"RA_OF_ASC_NODE":108.242,"ARG_OF_PERICENTER":250.7766,"MEAN_ANOMALY":109.218,"EPHEMERIS_TYPE":0,"CLASSIFICATION_TYPE":"U","NORAD_CAT_ID":49027,"ELEMENT_SET_NO":999,"REV_AT_EPOCH":25424,"BSTAR":0.00041179088,"MEAN_MOTION_DOT":6.722e-5,"MEAN_MOTION_DDOT":0},{"OBJECT_NAME":"STARLINK-4661","OBJECT_ID":"2022-107AJ","EPOCH":"2026-03-09T19:55:28.713216","MEAN_MOTION":15.08839677,"ECCENTRICITY":0.0001181,"INCLINATION":53.2159,"RA_OF_ASC_NODE":253.5716,"ARG_OF_PERICENTER":87.4091,"MEAN_ANOMALY":272.7036,"EPHEMERIS_TYPE":0,"CLASSIFICATION_TYPE":"U","NORAD_CAT_ID":53732,"ELEMENT_SET_NO":999,"REV_AT_EPOCH":19457,"BSTAR":4.4164919e-5,"MEAN_MOTION_DOT":4.15e-6,"MEAN_MOTION_DDOT":0}]
