TIANQI-15               
1 49027U 21065B   26068.81163741  .00006722  00000+0  41179-3 0  9990
2 49027  34.9979 108.2420 0007067 250.7766 109.2180 15.09508085254244
STARLINK-4661           
1 53732U 22107AJ  26068.83019344  .00000415  00000+0  44165-4 0  9999
2 53732  53.2159 253.5716 0001181  87.4091 272.7036 15.08839677194573
